[{"ORDINAL":"1","COMMENT":"GENERATED VIA SPACETRACK.ORG API","ORIGINATOR":"JSPOC","NORAD_CAT_ID":"39249","OBJECT_NAME":"GONETS M 05","OBJECT_TYPE":"PAYLOAD","CLASSIFICATION_TYPE":"U","INTLDES":"13048A","EPOCH":"2016-06-23 00:00:44","EPOCH_MICROSECONDS":"515008","MEAN_MOTION":"12.42884621","ECCENTRICITY":"0.0014593","INCLINATION":"82.4827","RA_OF_ASC_NODE":"96.4206","ARG_OF_PERICENTER":"245.0932","MEAN_ANOMALY":"114.8621","EPHEMERIS_TYPE":"0","ELEMENT_SET_NO":"999","REV_AT_EPOCH":"12608","BSTAR":"0.0001","MEAN_MOTION_DOT":"2.4e-07","MEAN_MOTION_DDOT":"0","FILE":"2050469","TLE_LINE0":"0 GONETS M 05","TLE_LINE1":"1 39249U 13048A   16175.00051522  .00000024  00000-0  10000-3 0  9998","TLE_LINE2":"2 39249  82.4827  96.4206 0014593 245.0932 114.8621 12.42884621126082","OBJECT_ID":"2013-048A","OBJECT_NUMBER":"39249","SEMIMAJOR_AXIS":"7872.535","PERIOD":"115.859","APOGEE":"1505.888","PERIGEE":"1482.912"},{"ORDINAL":"1","COMMENT":"GENERATED VIA SPACETRACK.ORG API","ORIGINATOR":"JSPOC","NORAD_CAT_ID":"39250","OBJECT_NAME":"GONETS M 06","OBJECT_TYPE":"PAYLOAD","CLASSIFICATION_TYPE":"U","INTLDES":"13048B","EPOCH":"2016-06-23 08:11:17","EPOCH_MICROSECONDS":"708352","MEAN_MOTION":"12.42911656","ECCENTRICITY":"0.0016966","INCLINATION":"82.4859","RA_OF_ASC_NODE":"96.4936","ARG_OF_PERICENTER":"278.1553","MEAN_ANOMALY":"81.7602","EPHEMERIS_TYPE":"0","ELEMENT_SET_NO":"999","REV_AT_EPOCH":"12613","BSTAR":"0","MEAN_MOTION_DOT":"1e-07","MEAN_MOTION_DDOT":"0","FILE":"2050642","TLE_LINE0":"0 GONETS M 06","TLE_LINE1":"1 39250U 13048B   16175.34117718  .00000010  00000-0  00000+0 0  9997","TLE_LINE2":"2 39250  82.4859  96.4936 0016966 278.1553  81.7602 12.42911656126137","OBJECT_ID":"2013-048B","OBJECT_NUMBER":"39250","SEMIMAJOR_AXIS":"7872.421","PERIOD":"115.856","APOGEE":"1507.642","PERIGEE":"1480.930"},{"ORDINAL":"1","COMMENT":"GENERATED VIA SPACETRACK.ORG API","ORIGINATOR":"JSPOC","NORAD_CAT_ID":"39251","OBJECT_NAME":"GONETS M 07","OBJECT_TYPE":"PAYLOAD","CLASSIFICATION_TYPE":"U","INTLDES":"13048C","EPOCH":"2016-06-23 07:03:19","EPOCH_MICROSECONDS":"648224","MEAN_MOTION":"12.42887691","ECCENTRICITY":"0.0014725","INCLINATION":"82.4894","RA_OF_ASC_NODE":"97.11","ARG_OF_PERICENTER":"240.3918","MEAN_ANOMALY":"119.5695","EPHEMERIS_TYPE":"0","ELEMENT_SET_NO":"999","REV_AT_EPOCH":"12610","BSTAR":"0","MEAN_MOTION_DOT":"1e-07","MEAN_MOTION_DDOT":"0","FILE":"2050639","TLE_LINE0":"0 GONETS M 07","TLE_LINE1":"1 39251U 13048C   16175.29397741  .00000010  00000-0  00000+0 0  9998","TLE_LINE2":"2 39251  82.4894  97.1100 0014725 240.3918 119.5695 12.42887691126105","OBJECT_ID":"2013-048C","OBJECT_NUMBER":"39251","SEMIMAJOR_AXIS":"7872.522","PERIOD":"115.859","APOGEE":"1505.979","PERIGEE":"1482.795"},{"ORDINAL":"1","COMMENT":"GENERATED VIA SPACETRACK.ORG API","ORIGINATOR":"JSPOC","NORAD_CAT_ID":"39253","OBJECT_NAME":"SPRINT A","OBJECT_TYPE":"PAYLOAD","CLASSIFICATION_TYPE":"U","INTLDES":"13049A","EPOCH":"2016-06-22 21:40:50","EPOCH_MICROSECONDS":"686752","MEAN_MOTION":"13.5516141","ECCENTRICITY":"0.0137004","INCLINATION":"29.7212","RA_OF_ASC_NODE":"29.9593","ARG_OF_PERICENTER":"348.0501","MEAN_ANOMALY":"11.6839","EPHEMERIS_TYPE":"0","ELEMENT_SET_NO":"999","REV_AT_EPOCH":"13642","BSTAR":"-4.1236e-05","MEAN_MOTION_DOT":"3.3e-07","MEAN_MOTION_DDOT":"0","FILE":"2050785","TLE_LINE0":"0 SPRINT A","TLE_LINE1":"1 39253U 13049A   16174.90336443 +.00000033 +00000-0 -41236-4 0  9997","TLE_LINE2":"2 39253 029.7212 029.9593 0137004 348.0501 011.6839 13.55161410136421","OBJECT_ID":"2013-049A","OBJECT_NUMBER":"39253","SEMIMAJOR_AXIS":"7431.465","PERIOD":"106.260","APOGEE":"1155.144","PERIGEE":"951.516"},{"ORDINAL":"1","COMMENT":"GENERATED VIA SPACETRACK.ORG API","ORIGINATOR":"JSPOC","NORAD_CAT_ID":"39260","OBJECT_NAME":"FENGYUN 3C","OBJECT_TYPE":"PAYLOAD","CLASSIFICATION_TYPE":"U","INTLDES":"13052A","EPOCH":"2016-06-23 05:37:56","EPOCH_MICROSECONDS":"195616","MEAN_MOTION":"14.19618605","ECCENTRICITY":"9.01e-05","INCLINATION":"98.6908","RA_OF_ASC_NODE":"246.3745","ARG_OF_PERICENTER":"57.5804","MEAN_ANOMALY":"302.5471","EPHEMERIS_TYPE":"0","ELEMENT_SET_NO":"999","REV_AT_EPOCH":"14245","BSTAR":"2.382e-05","MEAN_MOTION_DOT":"7e-08","MEAN_MOTION_DDOT":"0","FILE":"2050664","TLE_LINE0":"0 FENGYUN 3C","TLE_LINE1":"1 39260U 13052A   16175.23467819  .00000007  00000-0  23820-4 0  9997","TLE_LINE2":"2 39260  98.6908 246.3745 0000901  57.5804 302.5471 14.19618605142451","OBJECT_ID":"2013-052A","OBJECT_NUMBER":"39260","SEMIMAJOR_AXIS":"7204.779","PERIOD":"101.435","APOGEE":"827.294","PERIGEE":"825.995"},{"ORDINAL":"1","COMMENT":"GENERATED VIA SPACETRACK.ORG API","ORIGINATOR":"JSPOC","NORAD_CAT_ID":"39265","OBJECT_NAME":"CASSIOPE","OBJECT_TYPE":"PAYLOAD","CLASSIFICATION_TYPE":"U","INTLDES":"13055A","EPOCH":"2016-06-22 22:20:08","EPOCH_MICROSECONDS":"693088","MEAN_MOTION":"14.19496394","ECCENTRICITY":"0.0701387","INCLINATION":"80.9715","RA_OF_ASC_NODE":"25.8521","ARG_OF_PERICENTER":"210.2208","MEAN_ANOMALY":"145.6724","EPHEMERIS_TYPE":"0","ELEMENT_SET_NO":"999","REV_AT_EPOCH":"14048","BSTAR":"0.00012167","MEAN_MOTION_DOT":"4.05e-05","MEAN_MOTION_DDOT":"0","FILE":"2050785","TLE_LINE0":"0 CASSIOPE","TLE_LINE1":"1 39265U 13055A   16174.93065617 +.00004050 +00000-0 +12167-3 0  9994","TLE_LINE2":"2 39265 080.9715 025.8521 0701387 210.2208 145.6724 14.19496394140487","OBJECT_ID":"2013-055A","OBJECT_NUMBER":"39265","SEMIMAJOR_AXIS":"7205.193","PERIOD":"101.444","APOGEE":"1332.421","PERIGEE":"321.695"},{"ORDINAL":"1","COMMENT":"GENERATED VIA SPACETRACK.ORG API","ORIGINATOR":"JSPOC","NORAD_CAT_ID":"39266","OBJECT_NAME":"CUSAT 1","OBJECT_TYPE":"PAYLOAD","CLASSIFICATION_TYPE":"U","INTLDES":"13055B","EPOCH":"2016-06-23 13:56:00","EPOCH_MICROSECONDS":"295008","MEAN_MOTION":"14.248058","ECCENTRICITY":"0.0680204","INCLINATION":"80.9892","RA_OF_ASC_NODE":"21.3956","ARG_OF_PERICENTER":"194.6319","MEAN_ANOMALY":"163.4792","EPHEMERIS_TYPE":"0","ELEMENT_SET_NO":"999","REV_AT_EPOCH":"14098","BSTAR":"0.00014848","MEAN_MOTION_DOT":"5.106e-05","MEAN_MOTION_DDOT":"0","FILE":"2050784","TLE_LINE0":"0 CUSAT 1","TLE_LINE1":"1 39266U 13055B   16175.58055897  .00005106  00000-0  14848-3 0  9997","TLE_LINE2":"2 39266  80.9892  21.3956 0680204 194.6319 163.4792 14.24805800140989","OBJECT_ID":"2013-055B","OBJECT_NUMBER":"39266","SEMIMAJOR_AXIS":"7187.282","PERIOD":"101.066","APOGEE":"1298.029","PERIGEE":"320.265"},{"ORDINAL":"1","COMMENT":"GENERATED VIA SPACETRACK.ORG API","ORIGINATOR":"JSPOC","NORAD_CAT_ID":"39267","OBJECT_NAME":"DANDE","OBJECT_TYPE":"PAYLOAD","CLASSIFICATION_TYPE":"U","INTLDES":"13055C","EPOCH":"2016-06-22 22:04:29","EPOCH_MICROSECONDS":"676288","MEAN_MOTION":"14.14474983","ECCENTRICITY":"0.0723398","INCLINATION":"81.0133","RA_OF_ASC_NODE":"32.296","ARG_OF_PERICENTER":"221.1795","MEAN_ANOMALY":"133.2613","EPHEMERIS_TYPE":"0","ELEMENT_SET_NO":"999","REV_AT_EPOCH":"13785","BSTAR":"4.9473e-05","MEAN_MOTION_DOT":"1.63e-05","MEAN_MOTION_DDOT":"0","FILE":"2050785","TLE_LINE0":"0 DANDE","TLE_LINE1":"1 39267U 13055C   16174.91978792 +.00001630 +00000-0 +49473-4 0  9993","TLE_LINE2":"2 39267 081.0133 032.2960 0723398 221.1795 133.2613 14.14474983137854","OBJECT_ID":"2013-055C","OBJECT_NUMBER":"39267","SEMIMAJOR_AXIS":"7222.235","PERIOD":"101.804","APOGEE":"1366.555","PERIGEE":"321.645"},{"ORDINAL":"1","COMMENT":"GENERATED VIA SPACETRACK.ORG API","ORIGINATOR":"JSPOC","NORAD_CAT_ID":"39268","OBJECT_NAME":"POPACS 1","OBJECT_TYPE":"PAYLOAD","CLASSIFICATION_TYPE":"U","INTLDES":"13055D","EPOCH":"2016-06-22 21:35:30","EPOCH_MICROSECONDS":"843456","MEAN_MOTION":"14.26557632","ECCENTRICITY":"0.066926","INCLINATION":"81.0048","RA_OF_ASC_NODE":"21.8477","ARG_OF_PERICENTER":"189.8681","MEAN_ANOMALY":"168.8805","EPHEMERIS_TYPE":"0","ELEMENT_SET_NO":"999","REV_AT_EPOCH":"13941","BSTAR":"0.00016775","MEAN_MOTION_DOT":"5.661e-05","MEAN_MOTION_DDOT":"0","FILE":"2050785","TLE_LINE0":"0 POPACS 1","TLE_LINE1":"1 39268U 13055D   16174.89966254 +.00005661 +00000-0 +16775-3 0  9997","TLE_LINE2":"2 39268 081.0048 021.8477 0669260 189.8681 168.8805 14.26557632139415","OBJECT_ID":"2013-055D","OBJECT_NUMBER":"39268","SEMIMAJOR_AXIS":"7181.397","PERIOD":"100.942","APOGEE":"1283.884","PERIGEE":"322.640"},{"ORDINAL":"1","COMMENT":"GENERATED VIA SPACETRACK.ORG API","ORIGINATOR":"JSPOC","NORAD_CAT_ID":"39269","OBJECT_NAME":"POPACS 2","OBJECT_TYPE":"PAYLOAD","CLASSIFICATION_TYPE":"U","INTLDES":"13055E","EPOCH":"2016-06-22 21:33:09","EPOCH_MICROSECONDS":"232128","MEAN_MOTION":"14.1703082","ECCENTRICITY":"0.0712356","INCLINATION":"81.0172","RA_OF_ASC_NODE":"30.3929","ARG_OF_PERICENTER":"212.7942","MEAN_ANOMALY":"142.708","EPHEMERIS_TYPE":"0","ELEMENT_SET_NO":"999","REV_AT_EPOCH":"13914","BSTAR":"8.5486e-05","MEAN_MOTION_DOT":"2.833e-05","MEAN_MOTION_DDOT":"0","FILE":"2050785","TLE_LINE0":"0 POPACS 2","TLE_LINE1":"1 39269U 13055E   16174.89802352 +.00002833 +00000-0 +85486-4 0  9990","TLE_LINE2":"2 39269 081.0172 030.3929 0712356 212.7942 142.7080 14.17030820139143","OBJECT_ID":"2013-055E","OBJECT_NUMBER":"39269","SEMIMAJOR_AXIS":"7213.548","PERIOD":"101.620","APOGEE":"1349.275","PERIGEE":"321.552"},{"ORDINAL":"1","COMMENT":"GENERATED VIA SPACETRACK.ORG API","ORIGINATOR":"JSPOC","NORAD_CAT_ID":"39270","OBJECT_NAME":"POPACS 3","OBJECT_TYPE":"PAYLOAD","CLASSIFICATION_TYPE":"U","INTLDES":"13055F","EPOCH":"2016-06-23 08:13:00","EPOCH_MICROSECONDS":"560640","MEAN_MOTION":"14.11242274","ECCENTRICITY":"0.0732417","INCLINATION":"81.0165","RA_OF_ASC_NODE":"34.4301","ARG_OF_PERICENTER":"226.2473","MEAN_ANOMALY":"127.5819","EPHEMERIS_TYPE":"0","ELEMENT_SET_NO":"999","REV_AT_EPOCH":"14012","BSTAR":"3.7605e-05","MEAN_MOTION_DOT":"1.169e-05","MEAN_MOTION_DDOT":"0","FILE":"2050699","TLE_LINE0":"0 POPACS 3","TLE_LINE1":"1 39270U 13055F   16175.34236760  .00001169  00000-0  37605-4 0  9998","TLE_LINE2":"2 39270  81.0165  34.4301 0732417 226.2473 127.5819 14.11242274140128","OBJECT_ID":"2013-055F","OBJECT_NUMBER":"39270","SEMIMAJOR_AXIS":"7233.260","PERIOD":"102.037","APOGEE":"1384.902","PERIGEE":"325.349"}]